ZHUHAI-1 02 (CAS-4B)    
1 42759U 17034B   23154.49638413  .00006526  00000+0  33334-3 0  9992
2 42759  43.0138 191.7847 0010576   6.7342 353.3646 15.17210475329553
ZHUHAI-1 01 (CAS-4A)    
1 42761U 17034D   23154.51253362  .00006355  00000+0  32480-3 0  9995
2 42761  43.0134 190.2265 0011228   8.5271 351.5766 15.17217632329562
MAX VALIER SAT          
1 42778U 17036P   23154.31318134  .00022077  00000+0  58665-3 0  9994
2 42778  97.1559 189.4898 0010154 142.4671 217.7285 15.38216330330593
RADFXSAT (FOX-1B)       
1 43017U 17073E   23154.18044725  .00006576  00000+0  45869-3 0  9997
2 43017  97.6329  39.0746 0235562 115.3712 247.2096 14.85881790299107
FOX-1D (AO-92)          
1 43137U 18004AC  23154.21432656  .00030340  00000+0  64090-3 0  9996
2 43137  97.3290 233.2640 0006514 178.2940 181.8333 15.45111270300149
DIWATA-2B               
1 43678U 18084H   23154.52027979  .00001234  00000+0  12325-3 0  9990
2 43678  98.0211 298.2162 0009086 199.2874 160.8002 14.93383137250224
ES'HAIL 2               
1 43700U 18090A   23153.81552734  .00000164  00000+0  00000+0 0  9990
2 43700   0.0172 317.9045 0001677 138.9328 113.5868  1.00269285 16541
FOX-1CLIFF (AO-95)      
1 43770U 18099N   23154.14782631  .00004114  00000+0  33750-3 0  9995
2 43770  97.5738 216.0675 0012249 176.6714 183.4593 14.99707285245500
ITASAT 1                
1 43786U 18099AE  23154.14707414  .00003675  00000+0  30431-3 0  9992
2 43786  97.5783 217.0989 0013352 163.9202 196.2448 14.99406418245542
JY1SAT (JO-97)          
1 43803U 18099AX  23154.11374852  .00006078  00000+0  48372-3 0  9998
2 43803  97.5696 217.0435 0013814 137.7462 222.4829 15.00678815245585
UWE-4                   
1 43880U 18111E   23153.70163525  .00005501  00000+0  42280-3 0  9997
2 43880  97.6325  59.1122 0016979 219.4924 140.5064 15.02018762242190
NEXUS (FO-99)           
1 43937U 19003F   23153.85291197  .00048824  00000+0  82453-3 0  9995
2 43937  97.0862 181.2512 0009694 334.6816  25.3960 15.51428932243823
JAISAT-1                
1 44419U 19038F   23153.70674027  .00023623  00000+0  82115-3 0  9995
2 44419  97.6726 134.9537 0014307   3.8210 356.3136 15.29640137216321
DUCHIFAT-3              
1 44854U 19089C   23154.41751953  .00006386  00000+0  43387-3 0  9992
2 44854  36.9602 173.5674 0009828 210.0787 149.9393 15.06040186190760
CAS-6 (TIANQIN 1)       
1 44881U 19093C   23154.46051414  .00001033  00000+0  13489-3 0  9991
2 44881  97.8617 233.1451 0016028 120.5275 239.7523 14.82506680186762
RS-44 & BREEZE-KM R/B   
1 44909U 19096E   23153.68047384  .00000031  00000+0  82548-4 0  9999
2 44909  82.5222 357.5876 0216697 220.6872 137.7868 12.79720957160307
BY70-2                  
1 45857U 20042B   23154.51245305  .00014964  00000+0  15551-2 0  9999
2 45857  97.9262 234.3684 0009253  63.3075 296.9089 14.89967868157506
SALSAT                  
1 46495U 20068K   23153.58596268  .00004294  00000+0  28558-3 0  9996
2 46495  97.7700 101.4364 0016067 163.0528 197.1239 15.07608024146875
RADFXSAT-2 (AO-109)     
1 47311U 21002C   23153.42689040  .00021803  00000+0  57819-3 0  9994
2 47311  60.6797 115.2510 0014517 167.6205 192.5249 15.38251815132011
UVSQ-SAT                
1 47438U 21006AB  23153.65355227  .00014800  00000+0  61282-3 0  9998
2 47438  97.3855 210.9729 0011477 130.2239 230.0005 15.23965408130439
DIY-1 (ARDUIQUBE)       
1 47963U 21022AH  23153.68587270  .00186256  00000+0  26028-2 0  9990
2 47963  97.4982  61.5393 0005529  55.6108 304.5668 15.56188729120336
XW-3 (CAS-9)            
1 50466U 21131B   23154.54051538  .00000579  00000+0  20223-3 0  9997
2 50466  98.5517 236.1277 0004619 165.4439 194.6882 14.38904664 75395
TEVEL-3                 
1 50988U 22002E   23154.46394917  .00015961  00000+0  64946-3 0  9997
2 50988  97.4342 221.5270 0006176 278.2540  81.7996 15.24582532 76671
TEVEL-8                 
1 50989U 22002F   23154.41646780  .00017061  00000+0  69524-3 0  9991
2 50989  97.4358 221.5378 0006224 277.4626  82.5904 15.24516663 76667
TEVEL-5                 
1 50998U 22002Q   23154.41587593  .00017395  00000+0  69052-3 0  9993
2 50998  97.4335 221.8470 0007427 271.9863  88.0525 15.25384614 76699
TEVEL-6                 
1 50999U 22002R   23154.47999894  .00016233  00000+0  64469-3 0  9998
2 50999  97.4334 221.9056 0007449 271.6215  88.4169 15.25385035 76700
TEVEL-1                 
1 51013U 22002AF  23154.40770420  .00017006  00000+0  69262-3 0  9996
2 51013  97.4336 221.4165 0006137 277.9866  82.0674 15.24536348 76660
TEVEL-7                 
1 51062U 22002CG  23154.28634873  .00016314  00000+0  66476-3 0  9992
2 51062  97.4354 221.3823 0006213 277.1684  82.8847 15.24528498 76644
TEVEL-4                 
1 51063U 22002CH  23154.42324049  .00016085  00000+0  65638-3 0  9994
2 51063  97.4354 221.5028 0006196 276.7099  83.3433 15.24482574 76662
TEVEL-2                 
1 51069U 22002CP  23154.46579576  .00016110  00000+0  65543-3 0  9995
2 51069  97.4339 221.5011 0006148 277.7245  82.3295 15.24583833 76670
GREENCUBE               
1 53106U 22080B   23149.84195747 -.00000003  00000+0  00000+0 0  9993
2 53106  70.1621 326.0976 0008371 189.0727 170.9782  6.42557054 20576
RS29S (SXC3-2110 CYCLO*)
1 53373U 22096D   23154.41507196  .00027936  00000+0  74373-3 0  9991
2 53373  97.4158  60.5606 0002625 113.7595 246.3925 15.38163611 45573
RS32S (SXC3-212 MONITO*)
1 53374U 22096E   23154.44187193  .00024795  00000+0  67786-3 0  9996
2 53374  97.4137  60.4874 0002965 122.0434 238.1098 15.37364710 45571
RS34S (SXC3-218 KUZBAS*)
1 53375U 22096F   23154.38086001  .00021019  00000+0  61002-3 0  9997
2 53375  97.4163  60.1521 0002900 119.7698 240.3834 15.35531482 45541
RS23S (SXC3-21 UTMN)    
1 53376U 22096G   23154.40803611  .00022042  00000+0  62916-3 0  9997
2 53376  97.4159  60.2622 0002664 115.6209 244.5310 15.36043935 45558
RS28S (SXC3-214 MIET-A*)
1 53377U 22096H   23154.38706623  .00018860  00000+0  55412-3 0  9996
2 53377  97.4168  60.1502 0002764 120.6692 239.4824 15.35167320 45544
RS26S (KAI-1)           
1 53378U 22096J   23154.41332852  .00016353  00000+0  50216-3 0  9992
2 53378  97.4182  59.9760 0002791 117.6825 242.4701 15.33799115 45535
RS19S (SXC3-219 ISOI)   
1 53381U 22096M   23154.40717739  .00020079  00000+0  57499-3 0  9996
2 53381  97.4158  60.4113 0005627 103.8699 256.3171 15.35949255 45560
RS21S (CUBESX-HSE-2)    
1 53383U 22096P   23154.38378197  .00020496  00000+0  57917-3 0  9994
2 53383  97.4162  60.4532 0006157 104.8114 255.3812 15.36359202 45563
RS30S (SXC3-217 SIREN)  
1 53384U 22096Q   23154.40225462  .00016751  00000+0  49606-3 0  9999
2 53384  97.4173  60.2876 0006119 102.1331 258.0598 15.34928949 45553
RS20S (GEOSCAN-EDELVEIS)
1 53385U 22096R   23154.39535057  .00028224  00000+0  71477-3 0  9991
2 53385  97.4152  61.0273 0006497 103.4613 256.7357 15.39680346 45635
RS33S (SXC3-215 VIZARD) 
1 53386U 22096S   23154.40662007  .00037444  00000+0  84526-3 0  9993
2 53386  97.4147  61.6187 0007202 102.6408 257.5646 15.43093891 45669
CAS-5A (FO-118)         
1 54684U 22167C   23154.39406072  .00010683  00000+0  59484-3 0  9991
2 54684  97.5606 292.0707 0013672  27.9365 332.2597 15.13730743 26597
